{"fetched_at":"2026-03-29T16:36:15Z","count":15609,"tles":[{"name":"STARLINK-32333","line1":"1 61626U 24191F   26087.58276456  .00000782  00000+0  37928-4 0  9993","line2":"2 61626  43.0006  51.4634 0000892 262.0178  98.0573 15.27578295 80386","category":"Starlink"}]}