{
  "norad_id": 61626,
  "name": "STARLINK-32333",
  "history": [
    {
      "epoch": "2026-03-28T13:59:10.857984",
      "apogee_km": 483.6662196829393,
      "perigee_km": 482.4421831726049,
      "latitude_deg": 12.757750315184147,
      "longitude_deg": 38.5453977601137,
      "semi_major_axis_km": 6861.191201427772,
      "eccentricity": 8.92e-05,
      "inclination_deg": 43.0006,
      "raan_deg": 51.4634,
      "arg_perigee_deg": 262.0178,
      "mean_anomaly_deg": 98.0573,
      "mean_motion_rev_day": 15.27578295
    }
  ]
}